QIANFAN-52              
1 62253U 24232S   26062.08851409  .00000067  00000+0  85167-4 0  9995
2 62253  89.0048  32.9956 0014327 327.5679  32.4590 13.51000431 78791
QIANFAN-53              
1 62254U 24232T   26062.14197818  .00000066  00000+0  84093-4 0  9996
2 62254  89.0056  33.1007 0013249 329.1943  30.8430 13.51003199 78761
QIANFAN-54              
1 62255U 24232U   26062.18315463  .00000073  00000+0  95098-4 0  9994
2 62255  89.0048  32.7680 0003266  42.9002 317.2403 13.51002602110272
QIANFAN-55              
1 62785U 25016A   26062.13512894  .00000057  00000+0  69948-4 0  9992
2 62785  88.9695  94.8937 0019360 114.2441 246.0736 13.50996091 58049
QIANFAN-56              
1 62786U 25016B   26062.15150419  .00000082  00000+0  10777-3 0  9999
2 62786  88.9668  94.7066 0017994 116.1667 244.1337 13.50998070 58094
QIANFAN-57              
1 62787U 25016C   26062.11041742  .00000069  00000+0  88140-4 0  9999
2 62787  88.9699  94.8894 0001358  96.1316 263.9990 13.50996896 58058
QIANFAN-58              
1 62788U 25016D   26062.15561715  .00000062  00000+0  77394-4 0  9993
2 62788  88.9669  94.6915 0015964 109.1902 251.0978 13.50998466 58107
QIANFAN-59              
1 62789U 25016E   26062.10638587  .00000059  00000+0  72272-4 0  9997
2 62789  88.9692  94.7895 0016298 112.6730 247.6146 13.50994381 58099
QIANFAN-60              
1 62790U 25016F   26062.13931129  .00000064  00000+0  79889-4 0  9997
2 62790  88.9673  94.7421 0017882 109.6569 250.6514 13.50992412 58086
QIANFAN-61              
1 62791U 25016G   26062.09816995  .00000051  00000+0  60446-4 0  9991
2 62791  88.9741  94.9641 0016807 109.0752 251.2221 13.50993685 58099
QIANFAN-62              
1 62792U 25016H   26062.10221969  .00000048  00000+0  55829-4 0  9990
2 62792  88.9687  94.7886 0018189 109.5200 250.7918 13.50996374 58080
QIANFAN-63              
1 62793U 25016J   26062.12693866  .00000068  00000+0  86627-4 0  9994
2 62793  88.9694  94.7430 0018209 114.2459 246.0597 13.50995022 58121
QIANFAN-64              
1 62794U 25016K   26062.09405954  .00000045  00000+0  50815-4 0  9995
2 62794  88.9680  94.7096 0016193 107.8595 252.4324 13.50992946 58114
QIANFAN-65              
1 62795U 25016L   26062.16392570  .00000065  00000+0  81772-4 0  9991
2 62795  88.9677  94.7255 0016036 109.1569 251.1320 13.51008609 58106
QIANFAN-66              
1 62796U 25016M   26062.11864754  .00000075  00000+0  97257-4 0  9991
2 62796  88.9696  94.7161 0017164 105.5836 254.7211 13.50996747 58144
QIANFAN-67              
1 62797U 25016N   26062.12270431  .00000064  00000+0  80410-4 0  9997
2 62797  88.9687  94.7334 0017090 111.6493 248.6480 13.50995077 58114
QIANFAN-68              
1 62798U 25016P   26062.11463403  .00000070  00000+0  89229-4 0  9994
2 62798  88.9690  94.7824 0017150 110.0861 250.2138 13.51005034 58094
