[{"OBJECT_NAME":"QIANFAN-52","OBJECT_ID":"2024-232S","EPOCH":"2026-03-03T02:07:27.617376","MEAN_MOTION":13.51000431,"ECCENTRICITY":0.0014327,"INCLINATION":89.0048,"RA_OF_ASC_NODE":32.9956,"ARG_OF_PERICENTER":327.5679,"MEAN_ANOMALY":32.459,"EPHEMERIS_TYPE":0,"CLASSIFICATION_TYPE":"U","NORAD_CAT_ID":62253,"ELEMENT_SET_NO":999,"REV_AT_EPOCH":7879,"BSTAR":8.5167e-5,"MEAN_MOTION_DOT":6.7e-7,"MEAN_MOTION_DDOT":0},{"OBJECT_NAME":"QIANFAN-53","OBJECT_ID":"2024-232T","EPOCH":"2026-03-03T03:24:26.914752","MEAN_MOTION":13.51003199,"ECCENTRICITY":0.0013249,"INCLINATION":89.0056,"RA_OF_ASC_NODE":33.1007,"ARG_OF_PERICENTER":329.1943,"MEAN_ANOMALY":30.843,"EPHEMERIS_TYPE":0,"CLASSIFICATION_TYPE":"U","NORAD_CAT_ID":62254,"ELEMENT_SET_NO":999,"REV_AT_EPOCH":7876,"BSTAR":8.4093e-5,"MEAN_MOTION_DOT":6.6e-7,"MEAN_MOTION_DDOT":0},{"OBJECT_NAME":"QIANFAN-54","OBJECT_ID":"2024-232U","EPOCH":"2026-03-03T04:23:44.560032","MEAN_MOTION":13.51002602,"ECCENTRICITY":0.0003266,"INCLINATION":89.0048,"RA_OF_ASC_NODE":32.768,"ARG_OF_PERICENTER":42.9002,"MEAN_ANOMALY":317.2403,"EPHEMERIS_TYPE":0,"CLASSIFICATION_TYPE":"U","NORAD_CAT_ID":62255,"ELEMENT_SET_NO":999,"REV_AT_EPOCH":11027,"BSTAR":9.5098e-5,"MEAN_MOTION_DOT":7.3e-7,"MEAN_MOTION_DDOT":0},{"OBJECT_NAME":"QIANFAN-55","OBJECT_ID":"2025-016A","EPOCH":"2026-03-03T03:14:35.140416","MEAN_MOTION":13.50996091,"ECCENTRICITY":0.001936,"INCLINATION":88.9695,"RA_OF_ASC_NODE":94.8937,"ARG_OF_PERICENTER":114.2441,"MEAN_ANOMALY":246.0736,"EPHEMERIS_TYPE":0,"CLASSIFICATION_TYPE":"U","NORAD_CAT_ID":62785,"ELEMENT_SET_NO":999,"REV_AT_EPOCH":5804,"BSTAR":6.9948e-5,"MEAN_MOTION_DOT":5.7e-7,"MEAN_MOTION_DDOT":0},{"OBJECT_NAME":"QIANFAN-56","OBJECT_ID":"2025-016B","EPOCH":"2026-03-03T03:38:09.962016","MEAN_MOTION":13.5099807,"ECCENTRICITY":0.0017994,"INCLINATION":88.9668,"RA_OF_ASC_NODE":94.7066,"ARG_OF_PERICENTER":116.1667,"MEAN_ANOMALY":244.1337,"EPHEMERIS_TYPE":0,"CLASSIFICATION_TYPE":"U","NORAD_CAT_ID":62786,"ELEMENT_SET_NO":999,"REV_AT_EPOCH":5809,"BSTAR":0.00010777,"MEAN_MOTION_DOT":8.2e-7,"MEAN_MOTION_DDOT":0},{"OBJECT_NAME":"QIANFAN-57","OBJECT_ID":"2025-016C","EPOCH":"2026-03-03T02:39:00.065088","MEAN_MOTION":13.50996896,"ECCENTRICITY":0.0001358,"INCLINATION":88.9699,"RA_OF_ASC_NODE":94.8894,"ARG_OF_PERICENTER":96.1316,"MEAN_ANOMALY":263.999,"EPHEMERIS_TYPE":0,"CLASSIFICATION_TYPE":"U","NORAD_CAT_ID":62787,"ELEMENT_SET_NO":999,"REV_AT_EPOCH":5805,"BSTAR":8.814e-5,"MEAN_MOTION_DOT":6.9e-7,"MEAN_MOTION_DDOT":0},{"OBJECT_NAME":"QIANFAN-58","OBJECT_ID":"2025-016D","EPOCH":"2026-03-03T03:44:05.321760","MEAN_MOTION":13.50998466,"ECCENTRICITY":0.0015964,"INCLINATION":88.9669,"RA_OF_ASC_NODE":94.6915,"ARG_OF_PERICENTER":109.1902,"MEAN_ANOMALY":251.0978,"EPHEMERIS_TYPE":0,"CLASSIFICATION_TYPE":"U","NORAD_CAT_ID":62788,"ELEMENT_SET_NO":999,"REV_AT_EPOCH":5810,"BSTAR":7.7394e-5,"MEAN_MOTION_DOT":6.2e-7,"MEAN_MOTION_DDOT":0},{"OBJECT_NAME":"QIANFAN-59","OBJECT_ID":"2025-016E","EPOCH":"2026-03-03T02:33:11.739168","MEAN_MOTION":13.50994381,"ECCENTRICITY":0.0016298,"INCLINATION":88.9692,"RA_OF_ASC_NODE":94.7895,"ARG_OF_PERICENTER":112.673,"MEAN_ANOMALY":247.6146,"EPHEMERIS_TYPE":0,"CLASSIFICATION_TYPE":"U","NORAD_CAT_ID":62789,"ELEMENT_SET_NO":999,"REV_AT_EPOCH":5809,"BSTAR":7.2272e-5,"MEAN_MOTION_DOT":5.9e-7,"MEAN_MOTION_DDOT":0},{"OBJECT_NAME":"QIANFAN-60","OBJECT_ID":"2025-016F","EPOCH":"2026-03-03T03:20:36.495456","MEAN_MOTION":13.50992412,"ECCENTRICITY":0.0017882,"INCLINATION":88.9673,"RA_OF_ASC_NODE":94.7421,"ARG_OF_PERICENTER":109.6569,"MEAN_ANOMALY":250.6514,"EPHEMERIS_TYPE":0,"CLASSIFICATION_TYPE":"U","NORAD_CAT_ID":62790,"ELEMENT_SET_NO":999,"REV_AT_EPOCH":5808,"BSTAR":7.9889e-5,"MEAN_MOTION_DOT":6.4e-7,"MEAN_MOTION_DDOT":0},{"OBJECT_NAME":"QIANFAN-61","OBJECT_ID":"2025-016G","EPOCH":"2026-03-03T02:21:21.883680","MEAN_MOTION":13.50993685,"ECCENTRICITY":0.0016807,"INCLINATION":88.9741,"RA_OF_ASC_NODE":94.9641,"ARG_OF_PERICENTER":109.0752,"MEAN_ANOMALY":251.2221,"EPHEMERIS_TYPE":0,"CLASSIFICATION_TYPE":"U","NORAD_CAT_ID":62791,"ELEMENT_SET_NO":999,"REV_AT_EPOCH":5809,"BSTAR":6.0446e-5,"MEAN_MOTION_DOT":5.1e-7,"MEAN_MOTION_DDOT":0},{"OBJECT_NAME":"QIANFAN-62","OBJECT_ID":"2025-016H","EPOCH":"2026-03-03T02:27:11.781216","MEAN_MOTION":13.50996374,"ECCENTRICITY":0.0018189,"INCLINATION":88.9687,"RA_OF_ASC_NODE":94.7886,"ARG_OF_PERICENTER":109.52,"MEAN_ANOMALY":250.7918,"EPHEMERIS_TYPE":0,"CLASSIFICATION_TYPE":"U","NORAD_CAT_ID":62792,"ELEMENT_SET_NO":999,"REV_AT_EPOCH":5808,"BSTAR":5.5829e-5,"MEAN_MOTION_DOT":4.8e-7,"MEAN_MOTION_DDOT":0},{"OBJECT_NAME":"QIANFAN-63","OBJECT_ID":"2025-016J","EPOCH":"2026-03-03T03:02:47.500224","MEAN_MOTION":13.50995022,"ECCENTRICITY":0.0018209,"INCLINATION":88.9694,"RA_OF_ASC_NODE":94.743,"ARG_OF_PERICENTER":114.2459,"MEAN_ANOMALY":246.0597,"EPHEMERIS_TYPE":0,"CLASSIFICATION_TYPE":"U","NORAD_CAT_ID":62793,"ELEMENT_SET_NO":999,"REV_AT_EPOCH":5812,"BSTAR":8.6627e-5,"MEAN_MOTION_DOT":6.8e-7,"MEAN_MOTION_DDOT":0},{"OBJECT_NAME":"QIANFAN-64","OBJECT_ID":"2025-016K","EPOCH":"2026-03-03T02:15:26.744256","MEAN_MOTION":13.50992946,"ECCENTRICITY":0.0016193,"INCLINATION":88.968,"RA_OF_ASC_NODE":94.7096,"ARG_OF_PERICENTER":107.8595,"MEAN_ANOMALY":252.4324,"EPHEMERIS_TYPE":0,"CLASSIFICATION_TYPE":"U","NORAD_CAT_ID":62794,"ELEMENT_SET_NO":999,"REV_AT_EPOCH":5811,"BSTAR":5.0815e-5,"MEAN_MOTION_DOT":4.5e-7,"MEAN_MOTION_DDOT":0},{"OBJECT_NAME":"QIANFAN-65","OBJECT_ID":"2025-016L","EPOCH":"2026-03-03T03:56:03.180480","MEAN_MOTION":13.51008609,"ECCENTRICITY":0.0016036,"INCLINATION":88.9677,"RA_OF_ASC_NODE":94.7255,"ARG_OF_PERICENTER":109.1569,"MEAN_ANOMALY":251.132,"EPHEMERIS_TYPE":0,"CLASSIFICATION_TYPE":"U","NORAD_CAT_ID":62795,"ELEMENT_SET_NO":999,"REV_AT_EPOCH":5810,"BSTAR":8.1772e-5,"MEAN_MOTION_DOT":6.5e-7,"MEAN_MOTION_DDOT":0},{"OBJECT_NAME":"QIANFAN-66","OBJECT_ID":"2025-016M","EPOCH":"2026-03-03T02:50:51.147456","MEAN_MOTION":13.50996747,"ECCENTRICITY":0.0017164,"INCLINATION":88.9696,"RA_OF_ASC_NODE":94.7161,"ARG_OF_PERICENTER":105.5836,"MEAN_ANOMALY":254.7211,"EPHEMERIS_TYPE":0,"CLASSIFICATION_TYPE":"U","NORAD_CAT_ID":62796,"ELEMENT_SET_NO":999,"REV_AT_EPOCH":5814,"BSTAR":9.7257e-5,"MEAN_MOTION_DOT":7.5e-7,"MEAN_MOTION_DDOT":0},{"OBJECT_NAME":"QIANFAN-67","OBJECT_ID":"2025-016N","EPOCH":"2026-03-03T02:56:41.652384","MEAN_MOTION":13.50995077,"ECCENTRICITY":0.001709,"INCLINATION":88.9687,"RA_OF_ASC_NODE":94.7334,"ARG_OF_PERICENTER":111.6493,"MEAN_ANOMALY":248.648,"EPHEMERIS_TYPE":0,"CLASSIFICATION_TYPE":"U","NORAD_CAT_ID":62797,"ELEMENT_SET_NO":999,"REV_AT_EPOCH":5811,"BSTAR":8.041e-5,"MEAN_MOTION_DOT":6.4e-7,"MEAN_MOTION_DDOT":0},{"OBJECT_NAME":"QIANFAN-68","OBJECT_ID":"2025-016P","EPOCH":"2026-03-03T02:45:04.380192","MEAN_MOTION":13.51005034,"ECCENTRICITY":0.001715,"INCLINATION":88.969,"RA_OF_ASC_NODE":94.7824,"ARG_OF_PERICENTER":110.0861,"MEAN_ANOMALY":250.2138,"EPHEMERIS_TYPE":0,"CLASSIFICATION_TYPE":"U","NORAD_CAT_ID":62798,"ELEMENT_SET_NO":999,"REV_AT_EPOCH":5809,"BSTAR":8.9229e-5,"MEAN_MOTION_DOT":7.0e-7,"MEAN_MOTION_DDOT":0}]
